[{"OBJECT_NAME":"STARLINK-30547","OBJECT_ID":"2023-156S","EPOCH":"2025-08-14T12:33:17.291520","MEAN_MOTION":15.30197547,"ECCENTRICITY":0.0001123,"INCLINATION":53.1618,"RA_OF_ASC_NODE":50.4812,"ARG_OF_PERICENTER":81.8757,"MEAN_ANOMALY":278.2372,"EPHEMERIS_TYPE":0,"CLASSIFICATION_TYPE":"U","NORAD_CAT_ID":58044,"ELEMENT_SET_NO":999,"REV_AT_EPOCH":10331,"BSTAR":6.0496e-5,"MEAN_MOTION_DOT":1.433e-5,"MEAN_MOTION_DDOT":0},{"OBJECT_NAME":"STARLINK-30550","OBJECT_ID":"2023-156T","EPOCH":"2025-08-14T07:14:50.741952","MEAN_MOTION":15.30189046,"ECCENTRICITY":0.0001183,"INCLINATION":53.1594,"RA_OF_ASC_NODE":244.6493,"ARG_OF_PERICENTER":88.5495,"MEAN_ANOMALY":271.5641,"EPHEMERIS_TYPE":0,"CLASSIFICATION_TYPE":"U","NORAD_CAT_ID":58045,"ELEMENT_SET_NO":999,"REV_AT_EPOCH":10562,"BSTAR":1.4486e-5,"MEAN_MOTION_DOT":7.0e-7,"MEAN_MOTION_DDOT":0},{"OBJECT_NAME":"STARLINK-30548","OBJECT_ID":"2023-156U","EPOCH":"2025-08-13T19:41:25.438848","MEAN_MOTION":15.30280058,"ECCENTRICITY":0.0001158,"INCLINATION":53.1597,"RA_OF_ASC_NODE":53.9544,"ARG_OF_PERICENTER":97.8825,"MEAN_ANOMALY":262.2307,"EPHEMERIS_TYPE":0,"CLASSIFICATION_TYPE":"U","NORAD_CAT_ID":58046,"ELEMENT_SET_NO":999,"REV_AT_EPOCH":10315,"BSTAR":0.00055564,"MEAN_MOTION_DOT":0.00016174,"MEAN_MOTION_DDOT":0},{"OBJECT_NAME":"STARLINK-30529","OBJECT_ID":"2023-156V","EPOCH":"2025-08-14T11:31:09.588576","MEAN_MOTION":15.30205441,"ECCENTRICITY":0.0001251,"INCLINATION":53.1594,"RA_OF_ASC_NODE":50.9537,"ARG_OF_PERICENTER":90.9677,"MEAN_ANOMALY":269.1467,"EPHEMERIS_TYPE":0,"CLASSIFICATION_TYPE":"U","NORAD_CAT_ID":58047,"ELEMENT_SET_NO":999,"REV_AT_EPOCH":10325,"BSTAR":2.9607e-5,"MEAN_MOTION_DOT":5.18e-6,"MEAN_MOTION_DDOT":0},{"OBJECT_NAME":"STARLINK-30554","OBJECT_ID":"2023-156W","EPOCH":"2025-08-14T14:00:01.999872","MEAN_MOTION":15.30200051,"ECCENTRICITY":0.0001429,"INCLINATION":53.1609,"RA_OF_ASC_NODE":50.0318,"ARG_OF_PERICENTER":68.1853,"MEAN_ANOMALY":14.3968,"EPHEMERIS_TYPE":0,"CLASSIFICATION_TYPE":"U","NORAD_CAT_ID":58048,"ELEMENT_SET_NO":999,"REV_AT_EPOCH":586,"BSTAR":-7.8122e-7,"MEAN_MOTION_DOT":-3.82e-6,"MEAN_MOTION_DDOT":0},{"OBJECT_NAME":"STARLINK-30568","OBJECT_ID":"2023-158A","EPOCH":"2025-08-14T07:35:37.349664","MEAN_MOTION":15.02536833,"ECCENTRICITY":0.0001175,"INCLINATION":43.0019,"RA_OF_ASC_NODE":77.4324,"ARG_OF_PERICENTER":264.9797,"MEAN_ANOMALY":95.0911,"EPHEMERIS_TYPE":0,"CLASSIFICATION_TYPE":"U","NORAD_CAT_ID":58051,"ELEMENT_SET_NO":999,"REV_AT_EPOCH":10233,"BSTAR":-8.2352e-6,"MEAN_MOTION_DOT":-3.15e-6,"MEAN_MOTION_DDOT":0},{"OBJECT_NAME":"STARLINK-30575","OBJECT_ID":"2023-158B","EPOCH":"2025-08-13T23:46:33.845664","MEAN_MOTION":15.02545952,"ECCENTRICITY":9.62e-5,"INCLINATION":43.004,"RA_OF_ASC_NODE":79.2879,"ARG_OF_PERICENTER":277.1338,"MEAN_ANOMALY":82.9395,"EPHEMERIS_TYPE":0,"CLASSIFICATION_TYPE":"U","NORAD_CAT_ID":58052,"ELEMENT_SET_NO":999,"REV_AT_EPOCH":10228,"BSTAR":-4.6575e-5,"MEAN_MOTION_DOT":-8.33e-6,"MEAN_MOTION_DDOT":0},{"OBJECT_NAME":"STARLINK-30577","OBJECT_ID":"2023-158C","EPOCH":"2025-08-14T07:30:49.455360","MEAN_MOTION":15.02536441,"ECCENTRICITY":0.0001226,"INCLINATION":43.0034,"RA_OF_ASC_NODE":77.3884,"ARG_OF_PERICENTER":270.7357,"MEAN_ANOMALY":89.3345,"EPHEMERIS_TYPE":0,"CLASSIFICATION_TYPE":"U","NORAD_CAT_ID":58053,"ELEMENT_SET_NO":999,"REV_AT_EPOCH":10233,"BSTAR":-9.7103e-6,"MEAN_MOTION_DOT":-3.35e-6,"MEAN_MOTION_DDOT":0},{"OBJECT_NAME":"STARLINK-30566","OBJECT_ID":"2023-158D","EPOCH":"2025-08-14T07:21:13.727232","MEAN_MOTION":15.02572078,"ECCENTRICITY":0.0002282,"INCLINATION":42.9993,"RA_OF_ASC_NODE":77.3573,"ARG_OF_PERICENTER":267.0263,"MEAN_ANOMALY":93.0318,"EPHEMERIS_TYPE":0,"CLASSIFICATION_TYPE":"U","NORAD_CAT_ID":58054,"ELEMENT_SET_NO":999,"REV_AT_EPOCH":10233,"BSTAR":0.0050515,"MEAN_MOTION_DOT":0.00068774,"MEAN_MOTION_DDOT":0},{"OBJECT_NAME":"STARLINK-30544","OBJECT_ID":"2023-158E","EPOCH":"2025-08-14T06:57:15.759936","MEAN_MOTION":15.02536462,"ECCENTRICITY":0.0001179,"INCLINATION":43.0028,"RA_OF_ASC_NODE":77.2312,"ARG_OF_PERICENTER":267.0604,"MEAN_ANOMALY":93.0103,"EPHEMERIS_TYPE":0,"CLASSIFICATION_TYPE":"U","NORAD_CAT_ID":58055,"ELEMENT_SET_NO":999,"REV_AT_EPOCH":10233,"BSTAR":2.2157e-5,"MEAN_MOTION_DOT":9.6e-7,"MEAN_MOTION_DDOT":0},{"OBJECT_NAME":"STARLINK-30553","OBJECT_ID":"2023-158F","EPOCH":"2025-08-14T15:10:16.886496","MEAN_MOTION":15.02532203,"ECCENTRICITY":8.7e-5,"INCLINATION":42.9994,"RA_OF_ASC_NODE":75.5003,"ARG_OF_PERICENTER":262.1184,"MEAN_ANOMALY":97.9559,"EPHEMERIS_TYPE":0,"CLASSIFICATION_TYPE":"U","NORAD_CAT_ID":58056,"ELEMENT_SET_NO":999,"REV_AT_EPOCH":10238,"BSTAR":-6.1185e-5,"MEAN_MOTION_DOT":-1.03e-5,"MEAN_MOTION_DDOT":0},{"OBJECT_NAME":"STARLINK-30541","OBJECT_ID":"2023-158G","EPOCH":"2025-08-14T07:16:26.524992","MEAN_MOTION":15.02537599,"ECCENTRICITY":0.00011,"INCLINATION":43.0031,"RA_OF_ASC_NODE":77.3312,"ARG_OF_PERICENTER":265.8906,"MEAN_ANOMALY":94.181,"EPHEMERIS_TYPE":0,"CLASSIFICATION_TYPE":"U","NORAD_CAT_ID":58057,"ELEMENT_SET_NO":999,"REV_AT_EPOCH":10233,"BSTAR":3.5489e-5,"MEAN_MOTION_DOT":2.76e-6,"MEAN_MOTION_DDOT":0},{"OBJECT_NAME":"STARLINK-30573","OBJECT_ID":"2023-158H","EPOCH":"2025-08-14T07:06:50.981760","MEAN_MOTION":15.02539018,"ECCENTRICITY":0.0001102,"INCLINATION":43.0034,"RA_OF_ASC_NODE":77.2825,"ARG_OF_PERICENTER":261.9341,"MEAN_ANOMALY":98.1376,"EPHEMERIS_TYPE":0,"CLASSIFICATION_TYPE":"U","NORAD_CAT_ID":58058,"ELEMENT_SET_NO":999,"REV_AT_EPOCH":10233,"BSTAR":6.1886e-5,"MEAN_MOTION_DOT":6.33e-6,"MEAN_MOTION_DDOT":0},{"OBJECT_NAME":"STARLINK-30582","OBJECT_ID":"2023-158J","EPOCH":"2025-08-14T14:51:06.359040","MEAN_MOTION":15.02541068,"ECCENTRICITY":0.0001151,"INCLINATION":43.001,"RA_OF_ASC_NODE":75.403,"ARG_OF_PERICENTER":265.7331,"MEAN_ANOMALY":94.338,"EPHEMERIS_TYPE":0,"CLASSIFICATION_TYPE":"U","NORAD_CAT_ID":58059,"ELEMENT_SET_NO":999,"REV_AT_EPOCH":10238,"BSTAR":-1.9751e-5,"MEAN_MOTION_DOT":-4.7e-6,"MEAN_MOTION_DDOT":0},{"OBJECT_NAME":"STARLINK-30558","OBJECT_ID":"2023-158K","EPOCH":"2025-08-13T23:51:21.823776","MEAN_MOTION":15.02536512,"ECCENTRICITY":0.0001115,"INCLINATION":43.003,"RA_OF_ASC_NODE":79.2986,"ARG_OF_PERICENTER":265.0402,"MEAN_ANOMALY":95.0313,"EPHEMERIS_TYPE":0,"CLASSIFICATION_TYPE":"U","NORAD_CAT_ID":58060,"ELEMENT_SET_NO":999,"REV_AT_EPOCH":10228,"BSTAR":2.1827e-5,"MEAN_MOTION_DOT":9.1e-7,"MEAN_MOTION_DDOT":0},{"OBJECT_NAME":"STARLINK-30579","OBJECT_ID":"2023-158L","EPOCH":"2025-08-14T11:35:43.859328","MEAN_MOTION":15.02544989,"ECCENTRICITY":0.000129,"INCLINATION":43.004,"RA_OF_ASC_NODE":50.7908,"ARG_OF_PERICENTER":266.2318,"MEAN_ANOMALY":93.8376,"EPHEMERIS_TYPE":0,"CLASSIFICATION_TYPE":"U","NORAD_CAT_ID":58061,"ELEMENT_SET_NO":999,"REV_AT_EPOCH":10265,"BSTAR":-8.8501e-6,"MEAN_MOTION_DOT":-3.23e-6,"MEAN_MOTION_DDOT":0},{"OBJECT_NAME":"STARLINK-30588","OBJECT_ID":"2023-158M","EPOCH":"2025-08-14T14:41:30.959232","MEAN_MOTION":15.025387,"ECCENTRICITY":0.0001131,"INCLINATION":43.0029,"RA_OF_ASC_NODE":75.348,"ARG_OF_PERICENTER":274.297,"MEAN_ANOMALY":85.7743,"EPHEMERIS_TYPE":0,"CLASSIFICATION_TYPE":"U","NORAD_CAT_ID":58062,"ELEMENT_SET_NO":999,"REV_AT_EPOCH":10238,"BSTAR":4.984e-6,"MEAN_MOTION_DOT":-1.36e-6,"MEAN_MOTION_DDOT":0}]
