STARLINK-30547          
1 58044U 23156S   25226.52311680  .00001433  00000+0  60496-4 0  9990
2 58044  53.1618  50.4812 0001123  81.8757 278.2372 15.30197547103311
STARLINK-30550          
1 58045U 23156T   25226.30197618  .00000070  00000+0  14486-4 0  9994
2 58045  53.1594 244.6493 0001183  88.5495 271.5641 15.30189046105622
STARLINK-30548          
1 58046U 23156U   25225.82043332  .00016174  00000+0  55564-3 0  9997
2 58046  53.1597  53.9544 0001158  97.8825 262.2307 15.30280058103153
STARLINK-30529          
1 58047U 23156V   25226.47997209  .00000518  00000+0  29607-4 0  9996
2 58047  53.1594  50.9537 0001251  90.9677 269.1467 15.30205441103250
STARLINK-30554          
1 58048U 23156W   25226.58335648 -.00000382  00000+0 -78122-6 0  9991
2 58048  53.1609  50.0318 0001429  68.1853  14.3968 15.30200051  5862
STARLINK-30568          
1 58051U 23158A   25226.31640451 -.00000315  00000+0 -82352-5 0  9994
2 58051  43.0019  77.4324 0001175 264.9797  95.0911 15.02536833102333
STARLINK-30575          
1 58052U 23158B   25225.99066951 -.00000833  00000+0 -46575-4 0  9996
2 58052  43.0040  79.2879 0000962 277.1338  82.9395 15.02545952102280
STARLINK-30577          
1 58053U 23158C   25226.31307240 -.00000335  00000+0 -97103-5 0  9994
2 58053  43.0034  77.3884 0001226 270.7357  89.3345 15.02536441102338
STARLINK-30566          
1 58054U 23158D   25226.30640888  .00068774  00000+0  50515-2 0  9994
2 58054  42.9993  77.3573 0002282 267.0263  93.0318 15.02572078102332
STARLINK-30544          
1 58055U 23158E   25226.28976574  .00000096  00000+0  22157-4 0  9992
2 58055  43.0028  77.2312 0001179 267.0604  93.0103 15.02536462102336
STARLINK-30553          
1 58056U 23158F   25226.63213989 -.00001030  00000+0 -61185-4 0  9991
2 58056  42.9994  75.5003 0000870 262.1184  97.9559 15.02532203102383
STARLINK-30541          
1 58057U 23158G   25226.30308478  .00000276  00000+0  35489-4 0  9991
2 58057  43.0031  77.3312 0001100 265.8906  94.1810 15.02537599102337
STARLINK-30573          
1 58058U 23158H   25226.29642340  .00000633  00000+0  61886-4 0  9996
2 58058  43.0034  77.2825 0001102 261.9341  98.1376 15.02539018102330
STARLINK-30582          
1 58059U 23158J   25226.61882360 -.00000470  00000+0 -19751-4 0  9996
2 58059  43.0010  75.4030 0001151 265.7331  94.3380 15.02541068102384
STARLINK-30558          
1 58060U 23158K   25225.99400259  .00000091  00000+0  21827-4 0  9995
2 58060  43.0030  79.2986 0001115 265.0402  95.0313 15.02536512102283
STARLINK-30579          
1 58061U 23158L   25226.48314652 -.00000323  00000+0 -88501-5 0  9995
2 58061  43.0040  50.7908 0001290 266.2318  93.8376 15.02544989102659
STARLINK-30588          
1 58062U 23158M   25226.61216388 -.00000136  00000+0  49840-5 0  9992
2 58062  43.0029  75.3480 0001131 274.2970  85.7743 15.02538700102384
